[{"OBJECT_NAME":"OBJECT B","OBJECT_ID":"2023-104B","EPOCH":"2026-03-05T02:13:21.022752","MEAN_MOTION":15.93918547,"ECCENTRICITY":0.0002581,"INCLINATION":97.2681,"RA_OF_ASC_NODE":152.5461,"ARG_OF_PERICENTER":317.0128,"MEAN_ANOMALY":43.0945,"EPHEMERIS_TYPE":0,"CLASSIFICATION_TYPE":"U","NORAD_CAT_ID":57425,"ELEMENT_SET_NO":999,"REV_AT_EPOCH":14734,"BSTAR":0.00092292,"MEAN_MOTION_DOT":0.00334978,"MEAN_MOTION_DDOT":4.5441e-5},{"OBJECT_NAME":"OBJECT B","OBJECT_ID":"2024-085B","EPOCH":"2026-03-04T20:39:56.131776","MEAN_MOTION":15.94230468,"ECCENTRICITY":0.0009032,"INCLINATION":97.3358,"RA_OF_ASC_NODE":155.843,"ARG_OF_PERICENTER":298.6065,"MEAN_ANOMALY":61.4301,"EPHEMERIS_TYPE":0,"CLASSIFICATION_TYPE":"U","NORAD_CAT_ID":59678,"ELEMENT_SET_NO":999,"REV_AT_EPOCH":10264,"BSTAR":0.0014647,"MEAN_MOTION_DOT":0.00542292,"MEAN_MOTION_DDOT":0.00012101},{"OBJECT_NAME":"OBJECT D","OBJECT_ID":"2024-095D","EPOCH":"2026-03-05T01:21:24.857280","MEAN_MOTION":15.92155338,"ECCENTRICITY":0.0005261,"INCLINATION":97.5303,"RA_OF_ASC_NODE":167.7715,"ARG_OF_PERICENTER":254.9341,"MEAN_ANOMALY":105.1351,"EPHEMERIS_TYPE":0,"CLASSIFICATION_TYPE":"U","NORAD_CAT_ID":59813,"ELEMENT_SET_NO":999,"REV_AT_EPOCH":10015,"BSTAR":0.0017801,"MEAN_MOTION_DOT":0.00589793,"MEAN_MOTION_DDOT":0.00014037},{"OBJECT_NAME":"RUZAEVKA 390 (RS44S)","OBJECT_ID":"2024-199AH","EPOCH":"2026-03-05T02:58:39.037152","MEAN_MOTION":16.05711754,"ECCENTRICITY":0.0002118,"INCLINATION":97.2833,"RA_OF_ASC_NODE":306.13,"ARG_OF_PERICENTER":164.8009,"MEAN_ANOMALY":195.3337,"EPHEMERIS_TYPE":0,"CLASSIFICATION_TYPE":"U","NORAD_CAT_ID":61766,"ELEMENT_SET_NO":999,"REV_AT_EPOCH":11879,"BSTAR":0.0017691,"MEAN_MOTION_DOT":0.01235609,"MEAN_MOTION_DDOT":0.00089633},{"OBJECT_NAME":"SZ-19 DEB","OBJECT_ID":"2024-194E","EPOCH":"2026-03-05T00:23:44.941632","MEAN_MOTION":16.15114199,"ECCENTRICITY":0.0012437,"INCLINATION":41.4589,"RA_OF_ASC_NODE":191.4226,"ARG_OF_PERICENTER":13.6508,"MEAN_ANOMALY":346.4684,"EPHEMERIS_TYPE":0,"CLASSIFICATION_TYPE":"U","NORAD_CAT_ID":63801,"ELEMENT_SET_NO":999,"REV_AT_EPOCH":4846,"BSTAR":0.0004866,"MEAN_MOTION_DOT":0.00689593,"MEAN_MOTION_DDOT":0.00028238},{"OBJECT_NAME":"COSMOS 2591","OBJECT_ID":"2025-182A","EPOCH":"2026-03-04T11:39:30.254112","MEAN_MOTION":15.96328012,"ECCENTRICITY":0.00069506,"INCLINATION":96.5896,"RA_OF_ASC_NODE":356.8341,"ARG_OF_PERICENTER":170.4176,"MEAN_ANOMALY":189.7236,"EPHEMERIS_TYPE":0,"CLASSIFICATION_TYPE":"U","NORAD_CAT_ID":65267,"ELEMENT_SET_NO":999,"REV_AT_EPOCH":3099,"BSTAR":0.00015831715,"MEAN_MOTION_DOT":0.00065052,"MEAN_MOTION_DDOT":3.464732e-6},{"OBJECT_NAME":"COSMOS 2592","OBJECT_ID":"2025-182B","EPOCH":"2026-03-04T16:32:50.144928","MEAN_MOTION":15.96318498,"ECCENTRICITY":0.0007332,"INCLINATION":96.5908,"RA_OF_ASC_NODE":356.9887,"ARG_OF_PERICENTER":172.3284,"MEAN_ANOMALY":187.8108,"EPHEMERIS_TYPE":0,"CLASSIFICATION_TYPE":"U","NORAD_CAT_ID":65268,"ELEMENT_SET_NO":999,"REV_AT_EPOCH":3102,"BSTAR":1.2419e-5,"MEAN_MOTION_DOT":4.562e-5,"MEAN_MOTION_DDOT":1.8619e-6},{"OBJECT_NAME":"COSMOS 2593","OBJECT_ID":"2025-182C","EPOCH":"2026-03-04T10:54:22.377888","MEAN_MOTION":15.96384031,"ECCENTRICITY":0.00077464,"INCLINATION":96.5891,"RA_OF_ASC_NODE":356.7294,"ARG_OF_PERICENTER":174.7439,"MEAN_ANOMALY":185.3922,"EPHEMERIS_TYPE":0,"CLASSIFICATION_TYPE":"U","NORAD_CAT_ID":65269,"ELEMENT_SET_NO":999,"REV_AT_EPOCH":3098,"BSTAR":6.4760448e-5,"MEAN_MOTION_DOT":0.00026363,"MEAN_MOTION_DDOT":2.121759e-6},{"OBJECT_NAME":"COSMOS 2594","OBJECT_ID":"2025-182D","EPOCH":"2026-03-04T23:19:04.278720","MEAN_MOTION":15.96461387,"ECCENTRICITY":0.0007171,"INCLINATION":96.5902,"RA_OF_ASC_NODE":357.2075,"ARG_OF_PERICENTER":167.2384,"MEAN_ANOMALY":192.9077,"EPHEMERIS_TYPE":0,"CLASSIFICATION_TYPE":"U","NORAD_CAT_ID":65270,"ELEMENT_SET_NO":999,"REV_AT_EPOCH":3108,"BSTAR":0.00026229,"MEAN_MOTION_DOT":0.00108961,"MEAN_MOTION_DDOT":6.3932e-6},{"OBJECT_NAME":"ISS OBJECT XK","OBJECT_ID":"1998-067XK","EPOCH":"2026-03-05T01:12:29.192832","MEAN_MOTION":16.08976708,"ECCENTRICITY":0.0005043,"INCLINATION":51.6148,"RA_OF_ASC_NODE":71.0023,"ARG_OF_PERICENTER":69.2431,"MEAN_ANOMALY":290.9123,"EPHEMERIS_TYPE":0,"CLASSIFICATION_TYPE":"U","NORAD_CAT_ID":65731,"ELEMENT_SET_NO":999,"REV_AT_EPOCH":2615,"BSTAR":0.001424,"MEAN_MOTION_DOT":0.01274627,"MEAN_MOTION_DDOT":0.0010267},{"OBJECT_NAME":"BOTAN","OBJECT_ID":"1998-067XP","EPOCH":"2026-03-03T07:18:10.975680","MEAN_MOTION":16.26065139,"ECCENTRICITY":0.00029265,"INCLINATION":51.604,"RA_OF_ASC_NODE":82.5602,"ARG_OF_PERICENTER":46.9281,"MEAN_ANOMALY":313.1984,"EPHEMERIS_TYPE":0,"CLASSIFICATION_TYPE":"U","NORAD_CAT_ID":65942,"ELEMENT_SET_NO":999,"REV_AT_EPOCH":2259,"BSTAR":0.0014502781,"MEAN_MOTION_DOT":0.04760636,"MEAN_MOTION_DDOT":1.2040774e-5},{"OBJECT_NAME":"CZ-4B R/B","OBJECT_ID":"2025-289B","EPOCH":"2026-03-05T05:30:01.972800","MEAN_MOTION":16.33963657,"ECCENTRICITY":0.0019078,"INCLINATION":97.4983,"RA_OF_ASC_NODE":142.6908,"ARG_OF_PERICENTER":39.3765,"MEAN_ANOMALY":320.8913,"EPHEMERIS_TYPE":0,"CLASSIFICATION_TYPE":"U","NORAD_CAT_ID":66989,"ELEMENT_SET_NO":999,"REV_AT_EPOCH":1363,"BSTAR":0.00060119,"MEAN_MOTION_DOT":0.04088589,"MEAN_MOTION_DDOT":2.5723e-6},{"OBJECT_NAME":"STARLINK-36618","OBJECT_ID":"2026-033AC","EPOCH":"2026-03-05T04:00:01.999584","MEAN_MOTION":15.94502697,"ECCENTRICITY":0.0002414,"INCLINATION":42.9849,"RA_OF_ASC_NODE":297.1752,"ARG_OF_PERICENTER":272.684,"MEAN_ANOMALY":286.4505,"EPHEMERIS_TYPE":0,"CLASSIFICATION_TYPE":"U","NORAD_CAT_ID":67847,"ELEMENT_SET_NO":999,"REV_AT_EPOCH":393,"BSTAR":-0.0039942,"MEAN_MOTION_DOT":-0.0156258,"MEAN_MOTION_DDOT":0.00070109},{"OBJECT_NAME":"STARLINK-36818","OBJECT_ID":"2026-035A","EPOCH":"2026-03-05T04:00:01.999584","MEAN_MOTION":15.9728707,"ECCENTRICITY":0.0001331,"INCLINATION":97.2769,"RA_OF_ASC_NODE":356.1511,"ARG_OF_PERICENTER":116.4427,"MEAN_ANOMALY":72.0344,"EPHEMERIS_TYPE":0,"CLASSIFICATION_TYPE":"U","NORAD_CAT_ID":67879,"ELEMENT_SET_NO":999,"REV_AT_EPOCH":302,"BSTAR":-0.0020734,"MEAN_MOTION_DOT":-0.00901434,"MEAN_MOTION_DDOT":0.00026235},{"OBJECT_NAME":"STARLINK-36821","OBJECT_ID":"2026-035B","EPOCH":"2026-03-05T04:00:01.999584","MEAN_MOTION":15.97413733,"ECCENTRICITY":0.0001169,"INCLINATION":97.2765,"RA_OF_ASC_NODE":356.1541,"ARG_OF_PERICENTER":118.9138,"MEAN_ANOMALY":76.3545,"EPHEMERIS_TYPE":0,"CLASSIFICATION_TYPE":"U","NORAD_CAT_ID":67880,"ELEMENT_SET_NO":999,"REV_AT_EPOCH":302,"BSTAR":-0.002048,"MEAN_MOTION_DOT":-0.00896599,"MEAN_MOTION_DDOT":0.0002601},{"OBJECT_NAME":"STARLINK-36808","OBJECT_ID":"2026-035C","EPOCH":"2026-03-05T04:00:01.999584","MEAN_MOTION":15.97383343,"ECCENTRICITY":0.0001335,"INCLINATION":97.2766,"RA_OF_ASC_NODE":356.1521,"ARG_OF_PERICENTER":111.0614,"MEAN_ANOMALY":79.9821,"EPHEMERIS_TYPE":0,"CLASSIFICATION_TYPE":"U","NORAD_CAT_ID":67881,"ELEMENT_SET_NO":999,"REV_AT_EPOCH":302,"BSTAR":-0.0021245,"MEAN_MOTION_DOT":-0.00928343,"MEAN_MOTION_DDOT":0.00027738}]
