OBJECT B                
1 57425U 23104B   26064.09260443  .00334978  45441-4  92292-3 0  9992
2 57425  97.2681 152.5461 0002581 317.0128  43.0945 15.93918547147346
OBJECT B                
1 59678U 24085B   26063.86106634  .00542292  12101-3  14647-2 0  9991
2 59678  97.3358 155.8430 0009032 298.6065  61.4301 15.94230468102648
OBJECT D                
1 59813U 24095D   26064.05653770  .00589793  14037-3  17801-2 0  9995
2 59813  97.5303 167.7715 0005261 254.9341 105.1351 15.92155338100156
RUZAEVKA 390 (RS44S)    
1 61766U 24199AH  26064.12406293  .01235609  89633-3  17691-2 0  9990
2 61766  97.2833 306.1300 0002118 164.8009 195.3337 16.05711754118797
SZ-19 DEB               
1 63801U 24194E   26064.01649238  .00689593  28238-3  48660-3 0  9992
2 63801  41.4589 191.4226 0012437  13.6508 346.4684 16.15114199 48461
COSMOS 2591             
1 65267U 25182A   26063.48576683  .00065052  34647-5  15832-3 0  9997
2 65267  96.5896 356.8341 0006950 170.4176 189.7236 15.96328012 30991
COSMOS 2592             
1 65268U 25182B   26063.68946927  .00004562  18619-5  12419-4 0  9991
2 65268  96.5908 356.9887 0007332 172.3284 187.8108 15.96318498 31027
COSMOS 2593             
1 65269U 25182C   26063.45442567  .00026363  21218-5  64760-4 0  9996
2 65269  96.5891 356.7294 0007746 174.7439 185.3922 15.96384031 30983
COSMOS 2594             
1 65270U 25182D   26063.97157730  .00108961  63932-5  26229-3 0  9991
2 65270  96.5902 357.2075 0007171 167.2384 192.9077 15.96461387 31086
ISS OBJECT XK           
1 65731U 98067XK  26064.05033788  .01274627  10267-2  14240-2 0  9994
2 65731  51.6148  71.0023 0005043  69.2431 290.9123 16.08976708 26151
BOTAN                   
1 65942U 98067XP  26062.30429370  .04760636  12041-4  14503-2 0  9999
2 65942  51.6040  82.5602 0002926  46.9281 313.1984 16.26065139 22592
CZ-4B R/B               
1 66989U 25289B   26064.22918950  .04088589  25723-5  60119-3 0  9994
2 66989  97.4983 142.6908 0019078  39.3765 320.8913 16.33963657 13636
STARLINK-36618          
1 67847U 26033AC  26064.16668981 -.01562580  70109-3 -39942-2 0  9997
2 67847  42.9849 297.1752 0002414 272.6840 286.4505 15.94502697  3936
STARLINK-36818          
1 67879U 26035A   26064.16668981 -.00901434  26235-3 -20734-2 0  9998
2 67879  97.2769 356.1511 0001331 116.4427  72.0344 15.97287070  3025
STARLINK-36821          
1 67880U 26035B   26064.16668981 -.00896599  26010-3 -20480-2 0  9994
2 67880  97.2765 356.1541 0001169 118.9138  76.3545 15.97413733  3028
STARLINK-36808          
1 67881U 26035C   26064.16668981 -.00928343  27738-3 -21245-2 0  9996
2 67881  97.2766 356.1521 0001335 111.0614  79.9821 15.97383343  3025
